GLOBALSTAR M023         
1 25621U 99004A   25325.28672772 -.00000055  00000+0  27463-3 0  9991
2 25621  52.0117 295.0667 0010313 112.3372  26.5268 12.62509723235574
GLOBALSTAR M040         
1 25622U 99004B   25325.40801264 -.00000057  00000+0  26121-3 0  9998
2 25622  51.9929 299.0839 0001246  27.4288 138.2257 12.62023517235106
GLOBALSTAR M036         
1 25623U 99004C   25325.82081318 -.00000005  00000+0  11386-2 0  9994
2 25623  51.9937 184.8276 0010831 357.7372  84.2712 11.86617651197695
GLOBALSTAR M038         
1 25624U 99004D   25325.52647684 -.00000071  00000+0  19916-3 0  9997
2 25624  51.9994 338.4492 0001933  26.5009 141.7824 12.32536127221777
GLOBALSTAR M022         
1 25649U 99012A   25325.11032101 -.00000059  00000+0  33274-3 0  9999
2 25649  52.0031 224.3108 0003234 107.9083  34.2318 12.02506727195254
GLOBALSTAR M041         
1 25650U 99012B   25325.58227926 -.00000096  00000+0 -13412-3 0  9997
2 25650  51.9997 109.2745 0000420 238.4916 121.5880 11.96680983197123
GLOBALSTAR M046         
1 25651U 99012C   25325.79126771  .00000035  00000+0  13600-2 0  9996
2 25651  52.0020 166.8406 0001655 173.6704 268.0731 12.09415640202739
GLOBALSTAR M037         
1 25652U 99012D   25325.58113213 -.00000063  00000+0  22861-3 0  9993
2 25652  52.0013  64.7283 0002484 161.6193 301.4560 12.62455642231156
